[{"OBJECT_NAME":"BANDWAGON-2 OBJECT AD","OBJECT_ID":"2024-247AD","EPOCH":"2026-03-09T10:19:59.107872","MEAN_MOTION":15.43947936,"ECCENTRICITY":0.0008469,"INCLINATION":44.9956,"RA_OF_ASC_NODE":92.5354,"ARG_OF_PERICENTER":14.9097,"MEAN_ANOMALY":345.204,"EPHEMERIS_TYPE":0,"CLASSIFICATION_TYPE":"U","NORAD_CAT_ID":62404,"ELEMENT_SET_NO":999,"REV_AT_EPOCH":6800,"BSTAR":0.0008456968,"MEAN_MOTION_DOT":0.00039225,"MEAN_MOTION_DDOT":0},{"OBJECT_NAME":"CHIPSAT","OBJECT_ID":"2003-002B","EPOCH":"2026-03-09T14:27:30.663072","MEAN_MOTION":15.44632189,"ECCENTRICITY":0.000777,"INCLINATION":94.0324,"RA_OF_ASC_NODE":287.2761,"ARG_OF_PERICENTER":153.1766,"MEAN_ANOMALY":206.9893,"EPHEMERIS_TYPE":0,"CLASSIFICATION_TYPE":"U","NORAD_CAT_ID":27643,"ELEMENT_SET_NO":999,"REV_AT_EPOCH":27180,"BSTAR":0.00041911,"MEAN_MOTION_DOT":0.00019516,"MEAN_MOTION_DDOT":0}]
